var searchData=
[
  ['sdp4',['sdp4',['../struct___sat_data.html#ab7bfd91966db6411332426656d1a62f4',1,'_SatData']]],
  ['sdp4_5faodp',['sdp4_AODP',['../structsdp4__data.html#afbedc47b304f6362de6f565f215b110e',1,'sdp4_data']]],
  ['sdp4_5faycof',['sdp4_AYCOF',['../structsdp4__data.html#ae1233bb05e56bb56bdd4eb199fbe8585',1,'sdp4_data']]],
  ['sdp4_5fbetao',['sdp4_BETAO',['../structsdp4__data.html#a7fcb25a5006f55ea58d8d945a4d7d2aa',1,'sdp4_data']]],
  ['sdp4_5fbetao2',['sdp4_BETAO2',['../structsdp4__data.html#a762d0086b20cf47ac525795bcc1fcf83',1,'sdp4_data']]],
  ['sdp4_5fc1',['sdp4_C1',['../structsdp4__data.html#a5313edbdab20b808c9a5e3826d1a2b4b',1,'sdp4_data']]],
  ['sdp4_5fc4',['sdp4_C4',['../structsdp4__data.html#a9c417b3f30e3ca928f74615a629dfe09',1,'sdp4_data']]],
  ['sdp4_5fcosg',['sdp4_COSG',['../structsdp4__data.html#a1fddbda1c938312a11e100c3d8e3154a',1,'sdp4_data']]],
  ['sdp4_5fcosio',['sdp4_COSIO',['../structsdp4__data.html#ad15763f5ab1823c9ce28f4200ee4015d',1,'sdp4_data']]],
  ['sdp4_5fe_5fpero',['sdp4_E_pero',['../structsdp4__data.html#a931df30aad000edfe6d749a7f973b72f',1,'sdp4_data']]],
  ['sdp4_5fem_5fseco',['sdp4_EM_seco',['../structsdp4__data.html#a190d3f5e55a0d373252664f5733532c9',1,'sdp4_data']]],
  ['sdp4_5feosq',['sdp4_EOSQ',['../structsdp4__data.html#aec407c0dbe694c85a247151032b1bf75',1,'sdp4_data']]],
  ['sdp4_5fomgadf_5fpero',['sdp4_OMGADF_pero',['../structsdp4__data.html#a9f123c63a37702abd13863ce502113a9',1,'sdp4_data']]],
  ['sdp4_5fomgadf_5fseco',['sdp4_OMGADF_seco',['../structsdp4__data.html#a0f1710142828c31b1ed8932b5827a3e2',1,'sdp4_data']]],
  ['sdp4_5fomgdot',['sdp4_OMGDOT',['../structsdp4__data.html#a13026e5e9ea296934b2da9b986cdabb6',1,'sdp4_data']]],
  ['sdp4_5fsing',['sdp4_SING',['../structsdp4__data.html#a17ac570d54ff789e9af6f1e5006fb7e2',1,'sdp4_data']]],
  ['sdp4_5fsinio',['sdp4_SINIO',['../structsdp4__data.html#ae8a456f92f719964531d38f98d05feb5',1,'sdp4_data']]],
  ['sdp4_5ft2cof',['sdp4_T2COF',['../structsdp4__data.html#af66ee94a547f47c649fa781d16e17cc6',1,'sdp4_data']]],
  ['sdp4_5ftheta2',['sdp4_THETA2',['../structsdp4__data.html#a161d70530daa8bd4db20b923a1483d42',1,'sdp4_data']]],
  ['sdp4_5fx1mth2',['sdp4_X1MTH2',['../structsdp4__data.html#a7bd4f5f48657acaeb02ecd2b06543f7c',1,'sdp4_data']]],
  ['sdp4_5fx3thm1',['sdp4_X3THM1',['../structsdp4__data.html#ac2822d28386168be52e61de132419d35',1,'sdp4_data']]],
  ['sdp4_5fx7thm1',['sdp4_X7THM1',['../structsdp4__data.html#a04fc61c6b73948f030f0cba20af2a0b9',1,'sdp4_data']]],
  ['sdp4_5fxinc_5fpero',['sdp4_XINC_pero',['../structsdp4__data.html#a6c35626ec01910d7ef0a51aff58412ea',1,'sdp4_data']]],
  ['sdp4_5fxinc_5fseco',['sdp4_XINC_seco',['../structsdp4__data.html#a3f9d92fb7fd3af258a6e5e195aad4155',1,'sdp4_data']]],
  ['sdp4_5fxlcof',['sdp4_XLCOF',['../structsdp4__data.html#a6262addda0a9c7c6f18e228fe56928d1',1,'sdp4_data']]],
  ['sdp4_5fxmam_5fpero',['sdp4_XMAM_pero',['../structsdp4__data.html#a4db782ac5e3b58c51f2aeb4af4793de8',1,'sdp4_data']]],
  ['sdp4_5fxmdf_5fseco',['sdp4_XMDF_seco',['../structsdp4__data.html#a5c90a848d6bdf6beb3a766d77e0e250c',1,'sdp4_data']]],
  ['sdp4_5fxmdot',['sdp4_XMDOT',['../structsdp4__data.html#a6506c7b244edd99ce4592fdc285e22a5',1,'sdp4_data']]],
  ['sdp4_5fxn_5fseco',['sdp4_XN_seco',['../structsdp4__data.html#a2d0154dbe278519f871ff5d726a095b1',1,'sdp4_data']]],
  ['sdp4_5fxnodcf',['sdp4_XNODCF',['../structsdp4__data.html#ad30aed7cb81995cbec5b8a860e1f1464',1,'sdp4_data']]],
  ['sdp4_5fxnode_5fpero',['sdp4_XNODE_pero',['../structsdp4__data.html#aec215e13e431b1db9b8c4acd16d7741c',1,'sdp4_data']]],
  ['sdp4_5fxnode_5fseco',['sdp4_XNODE_seco',['../structsdp4__data.html#a5290f14b682ec0da52423219dfb4ce49',1,'sdp4_data']]],
  ['sdp4_5fxnodot',['sdp4_XNODOT',['../structsdp4__data.html#ad37f4d07e3a60b7b59fcfb2de095da4f',1,'sdp4_data']]],
  ['sdp4_5fxnodp',['sdp4_XNODP',['../structsdp4__data.html#ac869c664fde599dc5c467568d0ab4974',1,'sdp4_data']]],
  ['se_5fbstar',['se_BSTAR',['../struct___sat_elem.html#a282db948ea254d1ca2de2dfc9ee698c0',1,'_SatElem']]],
  ['se_5feo',['se_EO',['../struct___sat_elem.html#a11986bb255a52da8614cfacc1155bf89',1,'_SatElem']]],
  ['se_5fepoch',['se_EPOCH',['../struct___sat_elem.html#a31e22c4bf1c6745eaa88c19e1fb78cab',1,'_SatElem']]],
  ['se_5fid',['se_id',['../struct___sat_elem.html#af713f30c8d04002d6b3f7ac53c19740e',1,'_SatElem']]],
  ['se_5fomegao',['se_OMEGAO',['../struct___sat_elem.html#af530e5942e833b59ba385cacbed189e0',1,'_SatElem']]],
  ['se_5fxincl',['se_XINCL',['../struct___sat_elem.html#a5a9a336e24ea5df7051e5ce3b126a87e',1,'_SatElem']]],
  ['se_5fxmo',['se_XMO',['../struct___sat_elem.html#aa146285d54323061c76de2405e64c6bf',1,'_SatElem']]],
  ['se_5fxndd60',['se_XNDD60',['../struct___sat_elem.html#aae09d71117e666583cbcf89186b10865',1,'_SatElem']]],
  ['se_5fxndt20',['se_XNDT20',['../struct___sat_elem.html#a7dbd7b9b28a50bfbe0313592200f02b3',1,'_SatElem']]],
  ['se_5fxno',['se_XNO',['../struct___sat_elem.html#aafa866947f4ac775274333db067aac77',1,'_SatElem']]],
  ['se_5fxnodeo',['se_XNODEO',['../struct___sat_elem.html#a74d35f2c9772d5951cb24aa631e3e4df',1,'_SatElem']]],
  ['sgp4',['sgp4',['../struct___sat_data.html#a67d36020c0d25eb5a4684978b7fd3df6',1,'_SatData']]],
  ['sgp4_5faodp',['sgp4_AODP',['../structsgp4__data.html#aa2d4b2dec5c1e4516155d62f60f00802',1,'sgp4_data']]],
  ['sgp4_5faycof',['sgp4_AYCOF',['../structsgp4__data.html#acc26c407f2444fb3f8fb139c285ba3ca',1,'sgp4_data']]],
  ['sgp4_5fc1',['sgp4_C1',['../structsgp4__data.html#a79b7bc60972ac0c469516ce93e1399d2',1,'sgp4_data']]],
  ['sgp4_5fc4',['sgp4_C4',['../structsgp4__data.html#aa12851802bc654472e447da7fc48088b',1,'sgp4_data']]],
  ['sgp4_5fc5',['sgp4_C5',['../structsgp4__data.html#a208d5c222fb10621dfe6fad7c2c78abe',1,'sgp4_data']]],
  ['sgp4_5fcosio',['sgp4_COSIO',['../structsgp4__data.html#a5d43c67edb80a3e15b251f6792c6b222',1,'sgp4_data']]],
  ['sgp4_5fd2',['sgp4_D2',['../structsgp4__data.html#afc21e64f4c8ce2fb1163ffdac7fdc9b8',1,'sgp4_data']]],
  ['sgp4_5fd3',['sgp4_D3',['../structsgp4__data.html#a711e799a5f092af2739fc0240c716b5b',1,'sgp4_data']]],
  ['sgp4_5fd4',['sgp4_D4',['../structsgp4__data.html#ad992dcf93a4683e135e901c6ed08886e',1,'sgp4_data']]],
  ['sgp4_5fdelmo',['sgp4_DELMO',['../structsgp4__data.html#ab590ea761a20f350d40ee7475493c6af',1,'sgp4_data']]],
  ['sgp4_5feta',['sgp4_ETA',['../structsgp4__data.html#ac5cf1b16a0d7d907e601090f97d66f4a',1,'sgp4_data']]],
  ['sgp4_5fflags',['sgp4_flags',['../structsgp4__data.html#ad2c653bf404da1f8cd71b1570435c988',1,'sgp4_data']]],
  ['sgp4_5fomgcof',['sgp4_OMGCOF',['../structsgp4__data.html#a547296bc502e383ce1141540bf4e384e',1,'sgp4_data']]],
  ['sgp4_5fomgdot',['sgp4_OMGDOT',['../structsgp4__data.html#aaf1896c52cd17ee52c5c78709b98a063',1,'sgp4_data']]],
  ['sgp4_5fsinio',['sgp4_SINIO',['../structsgp4__data.html#ad05b71a577cb5e1131329a2c2bae5bd7',1,'sgp4_data']]],
  ['sgp4_5fsinmo',['sgp4_SINMO',['../structsgp4__data.html#ae7c778337c2df4ee1331959013bf6133',1,'sgp4_data']]],
  ['sgp4_5ft2cof',['sgp4_T2COF',['../structsgp4__data.html#a8af827479f36be8131cb3723946559fd',1,'sgp4_data']]],
  ['sgp4_5ft3cof',['sgp4_T3COF',['../structsgp4__data.html#a19e836b31fd51a6e99ddb36ae3f27eb8',1,'sgp4_data']]],
  ['sgp4_5ft4cof',['sgp4_T4COF',['../structsgp4__data.html#a8cdd605b7feada1a85d8888a4deed744',1,'sgp4_data']]],
  ['sgp4_5ft5cof',['sgp4_T5COF',['../structsgp4__data.html#a8139850f778b9001dc8a264e5aaa1fa0',1,'sgp4_data']]],
  ['sgp4_5fx1mth2',['sgp4_X1MTH2',['../structsgp4__data.html#a904322d83f088e67547a4b1a1a746860',1,'sgp4_data']]],
  ['sgp4_5fx3thm1',['sgp4_X3THM1',['../structsgp4__data.html#aa8f9e6a5b5dc5f2f4f2dde1a7b4e308f',1,'sgp4_data']]],
  ['sgp4_5fx7thm1',['sgp4_X7THM1',['../structsgp4__data.html#af0a4991bd8b347a636712f4bc46cbebc',1,'sgp4_data']]],
  ['sgp4_5fxlcof',['sgp4_XLCOF',['../structsgp4__data.html#aab16f57889d7d7cd0c1eb3a9edb6972b',1,'sgp4_data']]],
  ['sgp4_5fxmcof',['sgp4_XMCOF',['../structsgp4__data.html#acd188cc36233d0d726b79ee167d17742',1,'sgp4_data']]],
  ['sgp4_5fxmdot',['sgp4_XMDOT',['../structsgp4__data.html#a229f05e18a9bda018ea8572a2d52eef9',1,'sgp4_data']]],
  ['sgp4_5fxnodcf',['sgp4_XNODCF',['../structsgp4__data.html#a24e3ca073a4b8974e2b460793e7355df',1,'sgp4_data']]],
  ['sgp4_5fxnodot',['sgp4_XNODOT',['../structsgp4__data.html#a1df1672740828f8481b6d7d26b1ebdfe',1,'sgp4_data']]],
  ['sgp4_5fxnodp',['sgp4_XNODP',['../structsgp4__data.html#aeb109a0e09007ac3446353b14f6e7162',1,'sgp4_data']]],
  ['sgpd',['sgpd',['../eq__gal_8c.html#a78d9f182c01ec336a913d2b84f9a5c65',1,'eq_gal.c']]],
  ['sidday',['SidDay',['../earthsat_8c.html#af07cbf1e637badbbb49bd65dcf3d60f5',1,'earthsat.c']]],
  ['sidreference',['SidReference',['../earthsat_8c.html#a815c3c05b997fd02525a5cf1c06bdfd5',1,'earthsat.c']]],
  ['sinpenumbra',['SinPenumbra',['../earthsat_8c.html#a6f8084e801dbd473b4627112e9116a64',1,'earthsat.c']]],
  ['sitealtitude',['SiteAltitude',['../earthsat_8c.html#a29935943b70882f7c9eaecb7dadfa138',1,'earthsat.c']]],
  ['sitelat',['SiteLat',['../earthsat_8c.html#aaa9678b4f379c240d452a1e8fe202292',1,'earthsat.c']]],
  ['sitelong',['SiteLong',['../earthsat_8c.html#aea36a67ba51fc52a5bb52129531234f4',1,'earthsat.c']]],
  ['sizemjd',['sizemjd',['../jupmoon_8c.html#ab8ab7b4495f6c38e333b804d69144a89',1,'sizemjd():&#160;jupmoon.c'],['../marsmoon_8c.html#ab8ab7b4495f6c38e333b804d69144a89',1,'sizemjd():&#160;marsmoon.c'],['../satmoon_8c.html#ab8ab7b4495f6c38e333b804d69144a89',1,'sizemjd():&#160;satmoon.c'],['../umoon_8c.html#ab8ab7b4495f6c38e333b804d69144a89',1,'sizemjd():&#160;umoon.c']]],
  ['smd',['smd',['../satmoon_8c.html#a29e50d8e6e71b149e3922527f98771d6',1,'satmoon.c']]],
  ['ss',['ss',['../libration_8c.html#a058c605d07d05839a8416d5e2b47e17d',1,'ss():&#160;libration.c'],['../moon_8c.html#a4f28cd04a8e1f94bed46b7fc29120396',1,'ss():&#160;moon.c']]],
  ['start',['start',['../constel_8c.html#a10660a12dcc522823429e038f77dec69',1,'constel.c']]],
  ['stiltmjd',['stiltmjd',['../satmoon_8c.html#ab0271ccb70c0d87207f204feb7ebea28',1,'satmoon.c']]],
  ['str',['STR',['../libration_8c.html#ac9810ff13cf14f87cd30da00cd23fb2e',1,'libration.c']]],
  ['sunargperigee',['SunArgPerigee',['../earthsat_8c.html#a788921496f0bbf0852719bea0933526f',1,'earthsat.c']]],
  ['suneccentricity',['SunEccentricity',['../earthsat_8c.html#af46c41460c39169571751471657ffe36',1,'earthsat.c']]],
  ['sunepochtime',['SunEpochTime',['../earthsat_8c.html#a45ea83fe5eb3c5e44769179da6019583',1,'earthsat.c']]],
  ['suninclination',['SunInclination',['../earthsat_8c.html#a2458f7e62ea75be9ea969108bcd044a1',1,'earthsat.c']]],
  ['sunmeananomaly',['SunMeanAnomaly',['../earthsat_8c.html#a488b4bee5103ca5108716027d991563a',1,'earthsat.c']]],
  ['sunmeanmotion',['SunMeanMotion',['../earthsat_8c.html#add2848a89fce6a2fc61b036412a8627a',1,'earthsat.c']]],
  ['sunraan',['SunRAAN',['../earthsat_8c.html#aa316e37f8f62cec5d9394f24de6230eb',1,'earthsat.c']]],
  ['svis',['svis',['../struct_moon_data.html#a773e32d49166a22e7a4360dc5839378a',1,'MoonData']]],
  ['sx',['sx',['../struct_moon_data.html#a5dd6074e04eef9733b4cf35ec2be9b15',1,'MoonData']]],
  ['sy',['sy',['../struct_moon_data.html#a1481727f5f0a7a2014ee88ee94e03b02',1,'MoonData']]]
];
